TANAGER-1               
1 60507U 24149AR  26168.15951569  .00003617  00000+0  78842-4 0  9991
2 60507  97.2594 262.4119 0002807 306.3833  53.7157 15.44906910103038
EAGLEEYE                
1 60508U 24149AS  26167.21466948  .00080227  00000+0  64414-3 0  9991
2 60508  97.3731 260.4983 0004208 238.6404 121.4447 15.70740411102785
FLOCK 4BE-29            
1 60509U 24149AT  26167.72637180  .00014154  00000+0  31092-3 0  9998
2 60509  97.3818 253.5920 0001384 295.8074  64.3031 15.44134151102341
TRANSPORTER-11 OBJECT AU
1 60510U 24149AU  26167.73310745  .00012067  00000+0  30232-3 0  9992
2 60510  97.3735 251.4496 0002263 292.4643  67.6364 15.40211773102244
FLOCK 4BE-2             
1 60511U 24149AV  26168.57475453  .00047090  00000+0  76024-3 0  9997
2 60511  97.3838 255.8802 0003437 252.0751 108.0127 15.52745385102560
FLOCK 4BE-13            
1 60512U 24149AW  26168.15593674  .00010986  00000+0  26067-3 0  9994
2 60512  97.3725 252.5667 0002916 260.3977  99.6940 15.41886601102363
FLOCK 4BE-27            
1 60513U 24149AX  26168.12925385  .00006961  00000+0  21105-3 0  9996
2 60513  97.3828 249.9801 0002472 316.9244  43.1805 15.34444298102133
FLOCK 4BE-9             
1 60514U 24149AY  26168.15505256  .00012150  00000+0  29862-3 0  9996
2 60514  97.3796 252.4260 0001392 295.8466  64.2637 15.40794201102313
FLOCK 4BE-6             
1 60516U 24149BA  26168.11880310  .00011573  00000+0  29618-3 0  9998
2 60516  97.3794 251.7484 0002050 295.9275  64.1759 15.39573164102263
FLOCK 4BE-14            
1 60517U 24149BB  26167.71298842  .00013843  00000+0  33777-3 0  9990
2 60517  97.3701 251.4748 0003040 294.1004  65.9924 15.40979950102250
FLOCK 4BE-1             
1 60518U 24149BC  26167.98887920  .00013844  00000+0  32021-3 0  9993
2 60518  97.3784 253.0299 0002803 290.0315  70.0630 15.42593921102340
FLOCK 4BE-28            
1 60519U 24149BD  26167.67953457  .00014757  00000+0  31579-3 0  9990
2 60519  97.3754 253.4392 0002939 286.1721  73.9204 15.44895854102366
IPERDRONE.0             
1 60520U 24149BE  26168.49808926  .00065009  00000+0  61715-3 0  9994
2 60520  97.3784 261.7253 0003659 224.3055 135.7913 15.66688401102965
TRANSPORTER-11 OBJECT BF
1 60521U 24149BF  26168.00288323  .00236073  00000+0  10023-2 0  9991
2 60521  97.3769 263.9270 0006140 233.7952 126.2750 15.84671236103053
CONNECTA IOT-2          
1 60522U 24149BG  26167.85177601  .00003705  00000+0  15598-3 0  9997
2 60522  97.3842 246.0023 0005560 339.3032  20.7980 15.23972937101844
CONNECTA IOT-4          
1 60524U 24149BJ  26168.46685395  .00015242  00000+0  35753-3 0  9995
2 60524  97.3803 252.8404 0004004 283.4783  76.6018 15.42147360102371
ORESAT0.5               
1 60525U 24149BK  26167.98868053  .00017459  00000+0  37082-3 0  9995
2 60525  97.3731 253.9861 0004101 273.7621  86.3159 15.45075378102446
DEIMOS                  
1 60526U 24149BL  26168.15038196  .00014448  00000+0  31631-3 0  9992
2 60526  97.3787 254.2901 0004020 281.5970  78.4827 15.44222304102447
CUAVA-2                 
1 60527U 24149BM  26168.14829293  .00009234  00000+0  26464-3 0  9993
2 60527  97.3730 249.6673 0005193 295.1331  64.9374 15.36116396102164
ERNST                   
1 60528U 24149BN  26167.97475891  .00011922  00000+0  30864-3 0  9991
2 60528  97.3814 251.6926 0004420 299.3731  60.7072 15.39206037102247
TORO                    
1 60530U 24149BQ  26168.10603477  .00001486  00000+0  13606-3 0  9992
2 60530  97.6792 242.7754 0001550  81.2505 278.8892 14.96426301 99940
HYPSO-2                 
1 60531U 24149BR  26168.13394550  .00001745  00000+0  14966-3 0  9993
2 60531  97.6811 244.3959 0000392  30.3730 329.7516 14.98788025100045
LEMU NGE                
1 60532U 24149BS  26168.45289957  .00001123  00000+0  10802-3 0  9998
2 60532  97.6842 243.4073 0002038  62.3465 297.7962 14.94955608 99995
LEMUR-2-STELLA          
1 60533U 24149BT  26168.14795990  .00008720  00000+0  51415-3 0  9999
2 60533  97.6740 250.6025 0001708  95.8157 264.3268 15.11810973100494
SATELIOT_2              
1 60534U 24149BU  26168.56128416  .00002072  00000+0  18808-3 0  9992
2 60534  97.6834 243.5103 0002143  94.4480 265.6987 14.96364690100028
NIGHTJAR                
1 60535U 24149BV  26168.12541474  .00001768  00000+0  15070-3 0  9997
2 60535  97.6844 244.8337 0001241  78.0242 282.1120 14.99017361142869
LEMUR-2-MARHISYAM       
1 60536U 24149BW  26168.59174188  .00008890  00000+0  53196-3 0  9997
2 60536  97.6878 251.4975 0003279 117.6410 242.5153 15.11267356100540
SATELIOT_4              
1 60537U 24149BX  26168.10403642  .00001527  00000+0  13889-3 0  9990
2 60537  97.6743 242.5894 0003282  60.2446 299.9102 14.96671196 99965
PICO-02A021             
1 60538U 24149BY  26166.96827807  .00005072  00000+0  37893-3 0  9996
2 60538  97.6752 245.8092 0004963  31.2057 328.9462 15.03241779 99551
ICEYE-X43               
1 60539U 24149BZ  26168.56247226  .00003267  00000+0  26997-3 0  9993
2 60539  97.6788 245.5216 0008228  83.8765 276.3396 14.99619420100172
