OBJECT_NAME,OBJECT_ID,EPOCH,MEAN_MOTION,ECCENTRICITY,INCLINATION,RA_OF_ASC_NODE,ARG_OF_PERICENTER,MEAN_ANOMALY,EPHEMERIS_TYPE,CLASSIFICATION_TYPE,NORAD_CAT_ID,ELEMENT_SET_NO,REV_AT_EPOCH,BSTAR,MEAN_MOTION_DOT,MEAN_MOTION_DDOT
TANAGER-1,2024-149AR,2026-06-17T03:49:42.155616,15.44906910,.00028078,97.2594,262.4119,306.3833,53.7157,0,U,60507,999,10303,.78842173E-4,.3617E-4,0
EAGLEEYE,2024-149AS,2026-06-16T05:09:07.443072,15.70740411,.0004208,97.3731,260.4983,238.6404,121.4447,0,U,60508,999,10278,.64414E-3,.80227E-3,0
FLOCK 4BE-29,2024-149AT,2026-06-16T17:25:58.523520,15.44134151,.00013844,97.3818,253.5920,295.8074,64.3031,0,U,60509,999,10234,.31091665E-3,.14154E-3,0
TRANSPORTER-11 OBJECT AU,2024-149AU,2026-06-16T17:35:40.483680,15.40211773,.00022631,97.3735,251.4496,292.4643,67.6364,0,U,60510,999,10224,.30231678E-3,.12067E-3,0
FLOCK 4BE-2,2024-149AV,2026-06-17T13:47:38.791392,15.52745385,.00034371,97.3838,255.8802,252.0751,108.0127,0,U,60511,999,10256,.76024189E-3,.4709E-3,0
FLOCK 4BE-13,2024-149AW,2026-06-17T03:44:32.934336,15.41886601,.00029168,97.3725,252.5667,260.3977,99.6940,0,U,60512,999,10236,.26066621E-3,.10986E-3,0
FLOCK 4BE-27,2024-149AX,2026-06-17T03:06:07.532640,15.34444298,.00024729,97.3828,249.9801,316.9244,43.1805,0,U,60513,999,10213,.21105135E-3,.6961E-4,0
FLOCK 4BE-9,2024-149AY,2026-06-17T03:43:16.541184,15.40794201,.00013922,97.3796,252.4260,295.8466,64.2637,0,U,60514,999,10231,.29862168E-3,.1215E-3,0
FLOCK 4BE-6,2024-149BA,2026-06-17T02:51:04.587840,15.39573164,.000205,97.3794,251.7484,295.9275,64.1759,0,U,60516,999,10226,.29618473E-3,.11573E-3,0
FLOCK 4BE-14,2024-149BB,2026-06-16T17:06:42.199488,15.40979950,.00030401,97.3701,251.4748,294.1004,65.9924,0,U,60517,999,10225,.3377688E-3,.13843E-3,0
FLOCK 4BE-1,2024-149BC,2026-06-16T23:43:59.162880,15.42593921,.00028034,97.3784,253.0299,290.0315,70.0630,0,U,60518,999,10234,.32021455E-3,.13844E-3,0
FLOCK 4BE-28,2024-149BD,2026-06-16T16:18:31.786848,15.44895854,.00029396,97.3754,253.4392,286.1721,73.9204,0,U,60519,999,10236,.31578979E-3,.14757E-3,0
IPERDRONE.0,2024-149BE,2026-06-17T11:57:14.912064,15.66688401,.00036594,97.3784,261.7253,224.3055,135.7913,0,U,60520,999,10296,.61714731E-3,.65009E-3,0
TRANSPORTER-11 OBJECT BF,2024-149BF,2026-06-17T00:04:09.111072,15.84671236,.00061409,97.3769,263.9270,233.7952,126.2750,0,U,60521,999,10305,.10023056E-2,.236073E-2,0
CONNECTA IOT-2,2024-149BG,2026-06-16T20:26:33.447264,15.23972937,.000556,97.3842,246.0023,339.3032,20.7980,0,U,60522,999,10184,.15598385E-3,.3705E-4,0
CONNECTA IOT-4,2024-149BJ,2026-06-17T11:12:16.181280,15.42147360,.00040047,97.3803,252.8404,283.4783,76.6018,0,U,60524,999,10237,.3575263E-3,.15242E-3,0
ORESAT0.5,2024-149BK,2026-06-16T23:43:41.997792,15.45075378,.0004101,97.3731,253.9861,273.7621,86.3159,0,U,60525,999,10244,.37082328E-3,.17459E-3,0
DEIMOS,2024-149BL,2026-06-17T03:36:33.001344,15.44222304,.000402,97.3787,254.2901,281.5970,78.4827,0,U,60526,999,10244,.31631187E-3,.14448E-3,0
CUAVA-2,2024-149BM,2026-06-17T03:33:32.509152,15.36116396,.00051937,97.3730,249.6673,295.1331,64.9374,0,U,60527,999,10216,.264644E-3,.9234E-4,0
ERNST,2024-149BN,2026-06-16T23:23:39.169824,15.39206037,.00044203,97.3814,251.6926,299.3731,60.7072,0,U,60528,999,10224,.30864069E-3,.11922E-3,0
TORO,2024-149BQ,2026-06-17T02:32:41.404128,14.96426301,.00015507,97.6792,242.7754,81.2505,278.8892,0,U,60530,999,9994,.13606317E-3,.1486E-4,0
HYPSO-2,2024-149BR,2026-06-17T03:12:52.891200,14.98788025,.00003923,97.6811,244.3959,30.3730,329.7516,0,U,60531,999,10004,.14966435E-3,.1745E-4,0
LEMU NGE,2024-149BS,2026-06-17T10:52:10.522848,14.94955608,.00020388,97.6842,243.4073,62.3465,297.7962,0,U,60532,999,9999,.10802382E-3,.1123E-4,0
LEMUR-2-STELLA,2024-149BT,2026-06-17T03:33:03.735360,15.11810973,.00017086,97.6740,250.6025,95.8157,264.3268,0,U,60533,999,10049,.51414527E-3,.872E-4,0
SATELIOT_2,2024-149BU,2026-06-17T13:28:14.951424,14.96364690,.00021436,97.6834,243.5103,94.4480,265.6987,0,U,60534,999,10002,.18807803E-3,.2072E-4,0
NIGHTJAR,2024-149BV,2026-06-17T03:00:35.833536,14.99017361,.00012417,97.6844,244.8337,78.0242,282.1120,0,U,60535,999,14286,.15070484E-3,.1768E-4,0
LEMUR-2-MARHISYAM,2024-149BW,2026-06-17T14:12:06.498432,15.11267356,.00032791,97.6878,251.4975,117.6410,242.5153,0,U,60536,999,10054,.53195871E-3,.889E-4,0
SATELIOT_4,2024-149BX,2026-06-17T02:29:48.746688,14.96671196,.00032829,97.6743,242.5894,60.2446,299.9102,0,U,60537,999,9996,.13888596E-3,.1527E-4,0
PICO-02A021,2024-149BY,2026-06-15T23:14:19.225248,15.03241779,.00049638,97.6752,245.8092,31.2057,328.9462,0,U,60538,999,9955,.3789323E-3,.5072E-4,0
ICEYE-X43,2024-149BZ,2026-06-17T13:29:57.603264,14.99619420,.00082286,97.6788,245.5216,83.8765,276.3396,0,U,60539,999,10017,.26997061E-3,.3267E-4,0
